{
  "links" : {
    "next" : "https://api.nasa.gov/neo/rest/v1/feed?start_date=2001-07-23&end_date=2001-07-23&detailed=true&api_key=t0TVs3DtDT2H8Oy2Zy8m2eVrNsAVKAexjcZXUckd",
    "prev" : "https://api.nasa.gov/neo/rest/v1/feed?start_date=2001-07-21&end_date=2001-07-21&detailed=true&api_key=t0TVs3DtDT2H8Oy2Zy8m2eVrNsAVKAexjcZXUckd",
    "self" : "https://api.nasa.gov/neo/rest/v1/feed?start_date=2001-07-22&end_date=2001-07-22&detailed=true&api_key=t0TVs3DtDT2H8Oy2Zy8m2eVrNsAVKAexjcZXUckd"
  },
  "element_count" : 5,
  "near_earth_objects" : {
    "2001-07-22" : [ {
      "links" : {
        "self" : "https://api.nasa.gov/neo/rest/v1/neo/3422141?api_key=t0TVs3DtDT2H8Oy2Zy8m2eVrNsAVKAexjcZXUckd"
      },
      "neo_reference_id" : "3422141",
      "name" : "(2008 OT7)",
      "nasa_jpl_url" : "http://ssd.jpl.nasa.gov/sbdb.cgi?sstr=3422141",
      "absolute_magnitude_h" : 27.1,
      "estimated_diameter" : {
        "kilometers" : {
          "estimated_diameter_min" : 0.0101054342,
          "estimated_diameter_max" : 0.0225964377
        },
        "meters" : {
          "estimated_diameter_min" : 10.1054341542,
          "estimated_diameter_max" : 22.5964377109
        },
        "miles" : {
          "estimated_diameter_min" : 0.0062792237,
          "estimated_diameter_max" : 0.0140407711
        },
        "feet" : {
          "estimated_diameter_min" : 33.1543125905,
          "estimated_diameter_max" : 74.1352966996
        }
      },
      "is_potentially_hazardous_asteroid" : false,
      "close_approach_data" : [ {
        "close_approach_date" : "2001-07-22",
        "epoch_date_close_approach" : 995785200000,
        "relative_velocity" : {
          "kilometers_per_second" : "6.8035533968",
          "kilometers_per_hour" : "24492.7922283888",
          "miles_per_hour" : "15218.8685932452"
        },
        "miss_distance" : {
          "astronomical" : "0.0936159447",
          "lunar" : "36.4166030884",
          "kilometers" : "14004746",
          "miles" : "8702146"
        },
        "orbiting_body" : "Earth"
      } ],
      "orbital_data" : {
        "orbit_id" : "11",
        "orbit_determination_date" : "2017-04-06 09:03:11",
        "orbit_uncertainty" : "7",
        "minimum_orbit_intersection" : ".000993394",
        "jupiter_tisserand_invariant" : "5.469",
        "epoch_osculation" : "2458000.5",
        "eccentricity" : ".3142464414699687",
        "semi_major_axis" : "1.135426905234482",
        "inclination" : "1.777610550364872",
        "ascending_node_longitude" : "124.6711588507668",
        "orbital_period" : "441.9134282927856",
        "perihelion_distance" : ".778623040715287",
        "perihelion_argument" : "93.25843622900103",
        "aphelion_distance" : "1.492230769753678",
        "perihelion_time" : "2458147.468109005821",
        "mean_anomaly" : "240.2740178172602",
        "mean_motion" : ".8146391961673666",
        "equinox" : "J2000"
      }
    }, {
      "links" : {
        "self" : "https://api.nasa.gov/neo/rest/v1/neo/3484929?api_key=t0TVs3DtDT2H8Oy2Zy8m2eVrNsAVKAexjcZXUckd"
      },
      "neo_reference_id" : "3484929",
      "name" : "(2010 AJ3)",
      "nasa_jpl_url" : "http://ssd.jpl.nasa.gov/sbdb.cgi?sstr=3484929",
      "absolute_magnitude_h" : 24.5,
      "estimated_diameter" : {
        "kilometers" : {
          "estimated_diameter_min" : 0.0334622374,
          "estimated_diameter_max" : 0.0748238376
        },
        "meters" : {
          "estimated_diameter_min" : 33.4622374455,
          "estimated_diameter_max" : 74.8238376074
        },
        "miles" : {
          "estimated_diameter_min" : 0.0207924639,
          "estimated_diameter_max" : 0.0464933628
        },
        "feet" : {
          "estimated_diameter_min" : 109.7842471007,
          "estimated_diameter_max" : 245.4850393757
        }
      },
      "is_potentially_hazardous_asteroid" : false,
      "close_approach_data" : [ {
        "close_approach_date" : "2001-07-22",
        "epoch_date_close_approach" : 995785200000,
        "relative_velocity" : {
          "kilometers_per_second" : "22.1942867187",
          "kilometers_per_hour" : "79899.4321874057",
          "miles_per_hour" : "49646.3999611133"
        },
        "miss_distance" : {
          "astronomical" : "0.4543709915",
          "lunar" : "176.7503204346",
          "kilometers" : "67972936",
          "miles" : "42236424"
        },
        "orbiting_body" : "Earth"
      } ],
      "orbital_data" : {
        "orbit_id" : "10",
        "orbit_determination_date" : "2017-04-06 08:58:38",
        "orbit_uncertainty" : "7",
        "minimum_orbit_intersection" : ".0124822",
        "jupiter_tisserand_invariant" : "5.130",
        "epoch_osculation" : "2458000.5",
        "eccentricity" : ".3071290045003316",
        "semi_major_axis" : "1.225493590890711",
        "inclination" : "16.93143629768439",
        "ascending_node_longitude" : "110.0275647191753",
        "orbital_period" : "495.5243418084977",
        "perihelion_distance" : ".8491089642989101",
        "perihelion_argument" : "291.2561634371132",
        "aphelion_distance" : "1.601878217482512",
        "perihelion_time" : "2458125.224048568732",
        "mean_anomaly" : "269.3875846323288",
        "mean_motion" : ".7265031596351467",
        "equinox" : "J2000"
      }
    } ]
  }
}